[{"OBJECT_NAME":"STARLINK-1733","OBJECT_ID":"2020-070AJ","EPOCH":"2026-03-10T00:00:02.999808","MEAN_MOTION":15.74070769,"ECCENTRICITY":0.00019603,"INCLINATION":53.0418,"RA_OF_ASC_NODE":105.8439,"ARG_OF_PERICENTER":358.1851,"MEAN_ANOMALY":270.2405,"EPHEMERIS_TYPE":0,"CLASSIFICATION_TYPE":"U","NORAD_CAT_ID":46564,"ELEMENT_SET_NO":999,"REV_AT_EPOCH":596,"BSTAR":0.0010340128,"MEAN_MOTION_DOT":0.0015282,"MEAN_MOTION_DDOT":0},{"OBJECT_NAME":"STARLINK-36739","OBJECT_ID":"2026-032F","EPOCH":"2026-03-09T22:11:04.011072","MEAN_MOTION":15.75252344,"ECCENTRICITY":0.00015532,"INCLINATION":97.2849,"RA_OF_ASC_NODE":255.4741,"ARG_OF_PERICENTER":75.2971,"MEAN_ANOMALY":284.8466,"EPHEMERIS_TYPE":0,"CLASSIFICATION_TYPE":"U","NORAD_CAT_ID":67802,"ELEMENT_SET_NO":999,"REV_AT_EPOCH":482,"BSTAR":0.0012979371,"MEAN_MOTION_DOT":0.00198569,"MEAN_MOTION_DDOT":0}]
